IRIDIUM 138             
1 43071U 17083B   26193.78198115  .00000141  00000+0  43198-4 0  9999
2 43071  86.3998 311.0154 0002060  91.9407 268.2025 14.34218101447806
IRIDIUM 116             
1 43072U 17083C   26193.33165552  .00000112  00000+0  33074-4 0  9990
2 43072  86.3987 311.4902 0002391  99.4154 260.7312 14.34217071447776
IRIDIUM 130             
1 43073U 17083D   26193.78832637  .00000132  00000+0  40029-4 0  9995
2 43073  86.3992 311.5770 0002212 100.9567 259.1878 14.34217359447784
IRIDIUM 151             
1 43074U 17083E   26193.76295419  .00000147  00000+0  45426-4 0  9997
2 43074  86.3986 311.3680 0002236  95.4256 264.7195 14.34217673447801
IRIDIUM 134             
1 43075U 17083F   26193.80100911  .00000127  00000+0  38282-4 0  9995
2 43075  86.3986 311.3605 0002193  95.4836 264.6610 14.34218168447772
IRIDIUM 137             
1 43076U 17083G   26193.74392737  .00000129  00000+0  39160-4 0  9996
2 43076  86.3988 311.4777 0002658  94.1760 265.9740 14.34218045447833
IRIDIUM 141             
1 43077U 17083H   26193.80735090  .00000148  00000+0  45664-4 0  9994
2 43077  86.3984 311.2803 0002150  93.1423 267.0019 14.34217747447841
IRIDIUM 153             
1 43078U 17083J   26193.75953025  .00000058  00000+0  13650-4 0  9999
2 43078  86.3960 279.7801 0002115  94.3314 265.8123 14.34217657448949
IRIDIUM 131             
1 43079U 17083K   26193.79466758  .00000050  00000+0  10661-4 0  9997
2 43079  86.3989 311.4731 0002256  92.9329 267.2125 14.34217655447779
IRIDIUM 144             
1 43249U 18030A   26193.76587316  .00000055  00000+0  12518-4 0  9998
2 43249  86.3957 279.7059 0002370  98.0260 262.1205 14.34217750433808
IRIDIUM 149             
1 43250U 18030B   26193.77221598  .00000113  00000+0  33394-4 0  9998
2 43250  86.3958 279.6700 0002250  93.4321 266.7132 14.34217836433823
IRIDIUM 157             
1 43251U 18030C   26193.79124600  .00000140  00000+0  42894-4 0  9992
2 43251  86.3962 279.7159 0002252  94.1022 266.0431 14.34217505433802
IRIDIUM 140             
1 43252U 18030D   26193.74050473  .00000149  00000+0  46127-4 0  9996
2 43252  86.3960 279.7497 0002232  95.7422 264.4028 14.34217052433851
IRIDIUM 145             
1 43253U 18030E   26193.72781600  .00000137  00000+0  41833-4 0  9994
2 43253  86.3959 279.7269 0002473 100.6657 259.4817 14.34217167433789
IRIDIUM 146             
1 43254U 18030F   26193.77855801  .00000030  00000+0  36543-5 0  9990
2 43254  86.3960 279.7181 0002382  97.0448 263.1019 14.34217183433808
IRIDIUM 148             
1 43255U 18030G   26193.74684845  .00000147  00000+0  45307-4 0  9992
2 43255  86.3962 279.7747 0002347  94.3006 265.8458 14.34217473433831
IRIDIUM 142             
1 43256U 18030H   26193.78490124  .00000117  00000+0  34664-4 0  9993
2 43256  86.3955 279.6471 0002395  97.8427 262.3041 14.34217992433808
IRIDIUM 150             
1 43257U 18030J   26193.75318418 -.00000215  00000+0 -83744-4 0  9990
2 43257  86.3958 279.7775 0002138  95.5373 264.6066 14.34216323433821
IRIDIUM 143             
1 43258U 18030K   26193.73416067  .00000072  00000+0  18596-4 0  9990
2 43258  86.3963 279.8786 0002315  96.3911 263.7548 14.34217359433752
IRIDIUM 161             
1 43478U 18047C   26192.15744448  .00000172  00000+0  45078-4 0  9990
2 43478  86.4467  78.4474 0002306  78.8180 281.3280 14.43284936428596
IRIDIUM 152             
1 43479U 18047D   26193.77664986  .00000147  00000+0  45304-4 0  9992
2 43479  86.3939  77.6313 0002135  82.7944 277.3495 14.34219612426157
IRIDIUM 147             
1 43480U 18047E   26193.71321942  .00000139  00000+0  42503-4 0  9999
2 43480  86.3940  77.6635 0002269  88.3158 271.8298 14.34217360426142
IRIDIUM 110             
1 43481U 18047F   26193.71956394  .00000131  00000+0  39865-4 0  9994
2 43481  86.3945  77.7536 0002156  76.2175 283.9261 14.34217825426138
IRIDIUM 162             
1 43482U 18047G   26191.11118814  .00000189  00000+0  50126-4 0  9990
2 43482  86.4467  78.7759 0002187  84.2783 275.8667 14.43283456428433
IRIDIUM 160             
1 43569U 18061A   26193.66539700  .00000106  00000+0  30692-4 0  9990
2 43569  86.3941  46.1403 0002212  86.0889 274.0559 14.34216282417023
IRIDIUM 166             
1 43570U 18061B   26192.50470310  .00000031  00000+0  39317-5 0  9996
2 43570  86.3940  46.5761 0002260  89.6407 270.5047 14.34217869416881
IRIDIUM 158             
1 43571U 18061C   26193.65905655  .00000048  00000+0  10070-4 0  9991
2 43571  86.3939  46.1029 0002058  86.3743 273.7688 14.34217295417010
IRIDIUM 165             
1 43572U 18061D   26193.54488934  .00000091  00000+0  25565-4 0  9999
2 43572  86.3942  46.1976 0002266  90.8182 269.3273 14.34217303417026
IRIDIUM 155             
1 43573U 18061E   26193.64637093  .00000066  00000+0  16671-4 0  9993
2 43573  86.3939  46.0231 0002091  88.8126 271.3309 14.34217140417007
IRIDIUM 154             
1 43574U 18061F   26193.55757411  .00000142  00000+0  43477-4 0  9990
2 43574  86.3940  46.1951 0002306  90.0128 270.1332 14.34217689417041
IRIDIUM 163             
1 43575U 18061G   26193.67808355  .00000103  00000+0  29558-4 0  9999
2 43575  86.3937  46.0591 0002157  85.4739 274.6703 14.34217554417038
